{
  "type": "FeatureCollection",
  "features": [
    {
      "type": "Feature",
      "properties": {
        "norad_id": 33724,
        "name": "FENGYUN 1C DEB",
        "group": "fengyun-1c-debris",
        "lat": -54.98802988376613,
        "lon": 161.12893231615723,
        "alt_km": 819.6150715036583,
        "timestamp": "2025-12-09T04:51:47.780100+00:00",
        "meta_object_name": "FENGYUN 1C DEB",
        "meta_object_id": "1999-025DHM",
        "meta_epoch": "2025-12-07T18:44:54.517056",
        "meta_mean_motion": 14.1963247,
        "meta_eccentricity": 0.00270767,
        "meta_inclination": 98.604,
        "meta_ra_of_asc_node": 352.2297,
        "meta_arg_of_pericenter": 195.5604,
        "meta_mean_anomaly": 339.6047,
        "meta_ephemeris_type": 0,
        "meta_classification_type": "U",
        "meta_norad_cat_id": 33724,
        "meta_element_set_no": 999,
        "meta_rev_at_epoch": 93891,
        "meta_bstar": 0.00076769012,
        "meta_mean_motion_dot": 1.585e-05,
        "meta_mean_motion_ddot": 0,
        "tle_line1": "1 33724U 99025DHM 25341.78118654  .00001585  00000+0  76769-3 0  9995",
        "tle_line2": "2 33724  98.6040 352.2297 0027076 195.5604 339.6047 14.19632470938919"
      },
      "geometry": {
        "type": "Point",
        "coordinates": [
          161.12893231615723,
          -54.98802988376613
        ]
      }
    },
    {
      "type": "Feature",
      "properties": {
        "norad_id": 33726,
        "name": "FENGYUN 1C DEB",
        "group": "fengyun-1c-debris",
        "lat": -66.65640018105799,
        "lon": 128.1515871852338,
        "alt_km": 895.8217987945045,
        "timestamp": "2025-12-09T04:51:47.780110+00:00",
        "meta_object_name": "FENGYUN 1C DEB",
        "meta_object_id": "1999-025DHP",
        "meta_epoch": "2025-12-08T14:11:11.154048",
        "meta_mean_motion": 14.14297864,
        "meta_eccentricity": 0.0193023,
        "meta_inclination": 98.639,
        "meta_ra_of_asc_node": 106.9337,
        "meta_arg_of_pericenter": 42.965,
        "meta_mean_anomaly": 19.0813,
        "meta_ephemeris_type": 0,
        "meta_classification_type": "U",
        "meta_norad_cat_id": 33726,
        "meta_element_set_no": 999,
        "meta_rev_at_epoch": 91873,
        "meta_bstar": 0.00053504,
        "meta_mean_motion_dot": 1.18e-05,
        "meta_mean_motion_ddot": 0,
        "tle_line1": "1 33726U 99025DHP 25342.59110132  .00001180  00000+0  53504-3 0  9993",
        "tle_line2": "2 33726  98.6390 106.9337 0193023  42.9650  19.0813 14.14297864918737"
      },
      "geometry": {
        "type": "Point",
        "coordinates": [
          128.1515871852338,
          -66.65640018105799
        ]
      }
    },
    {
      "type": "Feature",
      "properties": {
        "norad_id": 33728,
        "name": "FENGYUN 1C DEB",
        "group": "fengyun-1c-debris",
        "lat": -36.086673428115155,
        "lon": 45.2085711216151,
        "alt_km": 607.2878284917197,
        "timestamp": "2025-12-09T04:51:47.780120+00:00",
        "meta_object_name": "FENGYUN 1C DEB",
        "meta_object_id": "1999-025DHR",
        "meta_epoch": "2025-12-08T14:32:53.645280",
        "meta_mean_motion": 14.92542527,
        "meta_eccentricity": 0.0147801,
        "meta_inclination": 98.9795,
        "meta_ra_of_asc_node": 37.9107,
        "meta_arg_of_pericenter": 228.4423,
        "meta_mean_anomaly": 130.4042,
        "meta_ephemeris_type": 0,
        "meta_classification_type": "U",
        "meta_norad_cat_id": 33728,
        "meta_element_set_no": 999,
        "meta_rev_at_epoch": 98238,
        "meta_bstar": 0.00070091,
        "meta_mean_motion_dot": 8.833e-05,
        "meta_mean_motion_ddot": 0,
        "tle_line1": "1 33728U 99025DHR 25342.60617645  .00008833  00000+0  70091-3 0  9990",
        "tle_line2": "2 33728  98.9795  37.9107 0147801 228.4423 130.4042 14.92542527982380"
      },
      "geometry": {
        "type": "Point",
        "coordinates": [
          45.2085711216151,
          -36.086673428115155
        ]
      }
    },
    {
      "type": "Feature",
      "properties": {
        "norad_id": 33730,
        "name": "FENGYUN 1C DEB",
        "group": "fengyun-1c-debris",
        "lat": -61.56068422456213,
        "lon": -156.51657904049634,
        "alt_km": 711.0263631427179,
        "timestamp": "2025-12-09T04:51:47.780130+00:00",
        "meta_object_name": "FENGYUN 1C DEB",
        "meta_object_id": "1999-025DHT",
        "meta_epoch": "2025-12-03T09:54:11.246688",
        "meta_mean_motion": 14.63205109,
        "meta_eccentricity": 0.00401027,
        "meta_inclination": 99.0564,
        "meta_ra_of_asc_node": 34.2592,
        "meta_arg_of_pericenter": 40.0931,
        "meta_mean_anomaly": 320.3216,
        "meta_ephemeris_type": 0,
        "meta_classification_type": "U",
        "meta_norad_cat_id": 33730,
        "meta_element_set_no": 999,
        "meta_rev_at_epoch": 95543,
        "meta_bstar": 0.0021836397,
        "meta_mean_motion_dot": 0.00011334,
        "meta_mean_motion_ddot": 0,
        "tle_line1": "1 33730U 99025DHT 25337.41263017  .00011334  00000+0  21836-2 0  9998",
        "tle_line2": "2 33730  99.0564  34.2592 0040102  40.0931 320.3216 14.63205109955434"
      },
      "geometry": {
        "type": "Point",
        "coordinates": [
          -156.51657904049634,
          -61.56068422456213
        ]
      }
    },
    {
      "type": "Feature",
      "properties": {
        "norad_id": 33731,
        "name": "FENGYUN 1C DEB",
        "group": "fengyun-1c-debris",
        "lat": -73.96668092439675,
        "lon": 149.93864733591147,
        "alt_km": 1009.6206073069234,
        "timestamp": "2025-12-09T04:51:47.780140+00:00",
        "meta_object_name": "FENGYUN 1C DEB",
        "meta_object_id": "1999-025DHU",
        "meta_epoch": "2025-12-07T18:56:32.396640",
        "meta_mean_motion": 13.95314387,
        "meta_eccentricity": 0.01292345,
        "meta_inclination": 99.4444,
        "meta_ra_of_asc_node": 3.886,
        "meta_arg_of_pericenter": 69.4564,
        "meta_mean_anomaly": 292.0409,
        "meta_ephemeris_type": 0,
        "meta_classification_type": "U",
        "meta_norad_cat_id": 33731,
        "meta_element_set_no": 999,
        "meta_rev_at_epoch": 90380,
        "meta_bstar": 0.0020152013,
        "meta_mean_motion_dot": 2.88e-05,
        "meta_mean_motion_ddot": 0,
        "tle_line1": "1 33731U 99025DHU 25341.78926385  .00002880  00000+0  20152-2 0  9994",
        "tle_line2": "2 33731  99.4444   3.8860 0129234  69.4564 292.0409 13.95314387903803"
      },
      "geometry": {
        "type": "Point",
        "coordinates": [
          149.93864733591147,
          -73.96668092439675
        ]
      }
    },
    {
      "type": "Feature",
      "properties": {
        "norad_id": 33733,
        "name": "FENGYUN 1C DEB",
        "group": "fengyun-1c-debris",
        "lat": 38.08014748783178,
        "lon": -104.42108848405047,
        "alt_km": 740.731763420531,
        "timestamp": "2025-12-09T04:51:47.780150+00:00",
        "meta_object_name": "FENGYUN 1C DEB",
        "meta_object_id": "1999-025DHW",
        "meta_epoch": "2025-12-08T04:50:49.402752",
        "meta_mean_motion": 14.30867233,
        "meta_eccentricity": 0.00809024,
        "meta_inclination": 99.099,
        "meta_ra_of_asc_node": 67.3183,
        "meta_arg_of_pericenter": 183.3026,
        "meta_mean_anomaly": 206.7882,
        "meta_ephemeris_type": 0,
        "meta_classification_type": "U",
        "meta_norad_cat_id": 33733,
        "meta_element_set_no": 999,
        "meta_rev_at_epoch": 90383,
        "meta_bstar": 0.0048281586,
        "meta_mean_motion_dot": 0.00013108,
        "meta_mean_motion_ddot": 0,
        "tle_line1": "1 33733U 99025DHW 25342.20196068  .00013108  00000+0  48282-2 0  9990",
        "tle_line2": "2 33733  99.0990  67.3183 0080902 183.3026 206.7882 14.30867233903830"
      },
      "geometry": {
        "type": "Point",
        "coordinates": [
          -104.42108848405047,
          38.08014748783178
        ]
      }
    },
    {
      "type": "Feature",
      "properties": {
        "norad_id": 33737,
        "name": "FENGYUN 1C DEB",
        "group": "fengyun-1c-debris",
        "lat": -26.411602666572158,
        "lon": -178.41583389273723,
        "alt_km": 817.3914077037871,
        "timestamp": "2025-12-09T04:51:47.780159+00:00",
        "meta_object_name": "FENGYUN 1C DEB",
        "meta_object_id": "1999-025DJA",
        "meta_epoch": "2025-12-08T12:07:53.696640",
        "meta_mean_motion": 14.02974071,
        "meta_eccentricity": 0.01283754,
        "meta_inclination": 98.338,
        "meta_ra_of_asc_node": 176.7683,
        "meta_arg_of_pericenter": 295.1991,
        "meta_mean_anomaly": 118.1017,
        "meta_ephemeris_type": 0,
        "meta_classification_type": "U",
        "meta_norad_cat_id": 33737,
        "meta_element_set_no": 999,
        "meta_rev_at_epoch": 88681,
        "meta_bstar": 0.0018830958,
        "meta_mean_motion_dot": 3.103e-05,
        "meta_mean_motion_ddot": 0,
        "tle_line1": "1 33737U 99025DJA 25342.50548260  .00003103  00000+0  18831-2 0  9993",
        "tle_line2": "2 33737  98.3380 176.7683 0128375 295.1991 118.1017 14.02974071886811"
      },
      "geometry": {
        "type": "Point",
        "coordinates": [
          -178.41583389273723,
          -26.411602666572158
        ]
      }
    }
  ]
}